{
  "type": "FeatureCollection",
  "features": [
    {
      "type": "Feature",
      "properties": {
        "norad_id": 48859,
        "name": "GPS BIII-5  (PRN 11)",
        "group": "gps-ops",
        "lat": -55.09824334312575,
        "lon": -116.14316831358406,
        "alt_km": 20133.862486228692,
        "timestamp": "2025-12-18T21:31:51.260186+00:00",
        "meta_object_name": "GPS BIII-5  (PRN 11)",
        "meta_object_id": "2021-054A",
        "meta_epoch": "2025-12-08T04:14:32.423424",
        "meta_mean_motion": 2.00553627,
        "meta_eccentricity": 0.0024678,
        "meta_inclination": 55.2581,
        "meta_ra_of_asc_node": 340.1367,
        "meta_arg_of_pericenter": 233.3994,
        "meta_mean_anomaly": 212.8593,
        "meta_ephemeris_type": 0,
        "meta_classification_type": "U",
        "meta_norad_cat_id": 48859,
        "meta_element_set_no": 999,
        "meta_rev_at_epoch": 3292,
        "meta_bstar": 0,
        "meta_mean_motion_dot": -8.6e-07,
        "meta_mean_motion_ddot": 0,
        "tle_line1": "1 48859U 21054A   25342.17676416 -.00000086  00000+0  00000+0 0  9993",
        "tle_line2": "2 48859  55.2581 340.1367 0024678 233.3994 212.8593  2.00553627 32922"
      },
      "geometry": {
        "type": "Point",
        "coordinates": [
          -116.14316831358406,
          -55.09824334312575
        ]
      }
    },
    {
      "type": "Feature",
      "properties": {
        "norad_id": 55268,
        "name": "GPS BIII-6  (PRN 28)",
        "group": "gps-ops",
        "lat": -39.62058496397502,
        "lon": 120.28155107505803,
        "alt_km": 20181.071827197677,
        "timestamp": "2025-12-18T21:31:51.260202+00:00",
        "meta_object_name": "GPS BIII-6  (PRN 28)",
        "meta_object_id": "2023-009A",
        "meta_epoch": "2025-12-17T11:51:56.668896",
        "meta_mean_motion": 2.00555417,
        "meta_eccentricity": 0.00037978,
        "meta_inclination": 55.1064,
        "meta_ra_of_asc_node": 155.6587,
        "meta_arg_of_pericenter": 358.2196,
        "meta_mean_anomaly": 17.9493,
        "meta_ephemeris_type": 0,
        "meta_classification_type": "U",
        "meta_norad_cat_id": 55268,
        "meta_element_set_no": 999,
        "meta_rev_at_epoch": 2160,
        "meta_bstar": 0,
        "meta_mean_motion_dot": 7.7e-07,
        "meta_mean_motion_ddot": 0,
        "tle_line1": "1 55268U 23009A   25351.49440589  .00000077  00000+0  00000+0 0  9991",
        "tle_line2": "2 55268  55.1064 155.6587 0003797 358.2196  17.9493  2.00555417 21607"
      },
      "geometry": {
        "type": "Point",
        "coordinates": [
          120.28155107505803,
          -39.62058496397502
        ]
      }
    },
    {
      "type": "Feature",
      "properties": {
        "norad_id": 62339,
        "name": "GPS BIII-7  (PRN 01)",
        "group": "gps-ops",
        "lat": 21.585833486432207,
        "lon": -2.3768683359103173,
        "alt_km": 20154.25687353487,
        "timestamp": "2025-12-18T21:31:51.260214+00:00",
        "meta_object_name": "GPS BIII-7  (PRN 01)",
        "meta_object_id": "2024-242A",
        "meta_epoch": "2025-12-18T02:37:38.581248",
        "meta_mean_motion": 2.00568178,
        "meta_eccentricity": 0.00125014,
        "meta_inclination": 54.9221,
        "meta_ra_of_asc_node": 341.5227,
        "meta_arg_of_pericenter": 345.673,
        "meta_mean_anomaly": 192.2282,
        "meta_ephemeris_type": 0,
        "meta_classification_type": "U",
        "meta_norad_cat_id": 62339,
        "meta_element_set_no": 999,
        "meta_rev_at_epoch": 762,
        "meta_bstar": 0,
        "meta_mean_motion_dot": -8.6e-07,
        "meta_mean_motion_ddot": 0,
        "tle_line1": "1 62339U 24242A   25352.10947432 -.00000086  00000+0  00000+0 0  9997",
        "tle_line2": "2 62339  54.9221 341.5227 0012501 345.6730 192.2282  2.00568178  7627"
      },
      "geometry": {
        "type": "Point",
        "coordinates": [
          -2.3768683359103173,
          21.585833486432207
        ]
      }
    },
    {
      "type": "Feature",
      "properties": {
        "norad_id": 64202,
        "name": "GPS BIII-8  (PRN 21)",
        "group": "gps-ops",
        "lat": -28.695509206719507,
        "lon": -119.15018853959421,
        "alt_km": 20186.983529328903,
        "timestamp": "2025-12-18T21:31:51.260226+00:00",
        "meta_object_name": "GPS BIII-8  (PRN 21)",
        "meta_object_id": "2025-116A",
        "meta_epoch": "2025-12-14T02:46:13.653120",
        "meta_mean_motion": 2.00558299,
        "meta_eccentricity": 0.00056153,
        "meta_inclination": 55.1067,
        "meta_ra_of_asc_node": 38.5851,
        "meta_arg_of_pericenter": 308.147,
        "meta_mean_anomaly": 55.2369,
        "meta_ephemeris_type": 0,
        "meta_classification_type": "U",
        "meta_norad_cat_id": 64202,
        "meta_element_set_no": 999,
        "meta_rev_at_epoch": 416,
        "meta_bstar": 0,
        "meta_mean_motion_dot": -9.6e-07,
        "meta_mean_motion_ddot": 0,
        "tle_line1": "1 64202U 25116A   25348.11543580 -.00000096  00000+0  00000+0 0  9992",
        "tle_line2": "2 64202  55.1067  38.5851 0005615 308.1470  55.2369  2.00558299  4161"
      },
      "geometry": {
        "type": "Point",
        "coordinates": [
          -119.15018853959421,
          -28.695509206719507
        ]
      }
    }
  ]
}